KUIPER-00222            
1 67782U 26030U   26065.28508261  .00032471  00000+0  10246-2 0  9993
2 67782  51.8801 235.9849 0017100  53.4205 306.8350 15.32431474  4567
KUIPER-00223            
1 67783U 26030V   26065.26866134  .00050635  00000+0  15154-2 0  9993
2 67783  51.8837 235.8878 0012369  48.7809 311.4240 15.33972308  4564
KUIPER-00225            
1 67784U 26030W   26065.18079413  .00035190  00000+0  10026-2 0  9993
2 67784  51.8811 236.0498 0004244  31.2635 328.8602 15.35752335  4556
KUIPER-00226            
1 67785U 26030X   26065.16650262 -.00031897  00000+0 -10307-2 0  9993
2 67785  51.8803 236.6875 0019783  62.6659 297.6336 15.31135927  4545
KUIPER-00259            
1 67786U 26030Y   26065.25730760  .00034823  00000+0  10177-2 0  9991
2 67786  51.8815 235.8084 0008285  39.9302 320.2292 15.34934409  4560
KUIPER-00260            
1 67787U 26030Z   26065.17284428  .00039204  00000+0  10952-2 0  9997
2 67787  51.8793 235.9979 0000978  50.9912 309.1162 15.36319992  4468
KUIPER-00262            
1 67788U 26030AA  26065.16916569  .00036149  00000+0  10009-2 0  9993
2 67788  51.8804 235.9762 0000365 166.2691 193.8306 15.36636127  4557
KUIPER-00266            
1 67789U 26030AB  26065.17121355  .00026361  00000+0  87180-3 0  9996
2 67789  51.8802 236.7151 0022314  63.5549 296.7721 15.30937356  4541
KUIPER-00268            
1 67790U 26030AC  26065.17822561  .00036593  00000+0  10386-2 0  9996
2 67790  51.8843 236.0422 0002505  38.1032 322.0131 15.35856274  4550
KUIPER-00270            
1 67791U 26030AD  26065.26295026  .00033149  00000+0  98217-3 0  9991
2 67791  51.8813 235.8450 0010236  46.8405 313.3434 15.34510359  4566
KUIPER-00274            
1 67792U 26030AE  26065.09520931 -.00063466  00000+0 -20862-2 0  9996
2 67792  51.8814 236.9671 0018077  61.5629 298.7174 15.30942893  4530
KUIPER-00275            
1 67793U 26030AF  26065.26029408  .00033887  00000+0  10017-2 0  9992
2 67793  51.8848 235.8367 0008932  44.1960 315.9737 15.34583752  4561
KUIPER-00276            
1 67794U 26030AG  26065.16430178 -.00031809  00000+0 -10253-2 0  9998
2 67794  51.8812 236.6777 0018681  57.7272 302.5519 15.31235035  4548
KUIPER-00279            
1 67795U 26030AH  26065.18804810  .00034828  00000+0  10081-2 0  9990
2 67795  51.8808 236.0959 0006579  37.7331 322.4115 15.35250306  4553
