[{"OBJECT_NAME":"KUIPER-00222","OBJECT_ID":"2026-030U","EPOCH":"2026-03-06T06:50:31.137504","MEAN_MOTION":15.32431474,"ECCENTRICITY":0.00171001,"INCLINATION":51.8801,"RA_OF_ASC_NODE":235.9849,"ARG_OF_PERICENTER":53.4205,"MEAN_ANOMALY":306.835,"EPHEMERIS_TYPE":0,"CLASSIFICATION_TYPE":"U","NORAD_CAT_ID":67782,"ELEMENT_SET_NO":999,"REV_AT_EPOCH":456,"BSTAR":0.0010246198,"MEAN_MOTION_DOT":0.00032471,"MEAN_MOTION_DDOT":0},{"OBJECT_NAME":"KUIPER-00223","OBJECT_ID":"2026-030V","EPOCH":"2026-03-06T06:26:52.339776","MEAN_MOTION":15.33972308,"ECCENTRICITY":0.00123692,"INCLINATION":51.8837,"RA_OF_ASC_NODE":235.8878,"ARG_OF_PERICENTER":48.7809,"MEAN_ANOMALY":311.424,"EPHEMERIS_TYPE":0,"CLASSIFICATION_TYPE":"U","NORAD_CAT_ID":67783,"ELEMENT_SET_NO":999,"REV_AT_EPOCH":456,"BSTAR":0.0015154187,"MEAN_MOTION_DOT":0.00050635,"MEAN_MOTION_DDOT":0},{"OBJECT_NAME":"KUIPER-00225","OBJECT_ID":"2026-030W","EPOCH":"2026-03-06T04:20:20.612832","MEAN_MOTION":15.35752335,"ECCENTRICITY":0.00042442,"INCLINATION":51.8811,"RA_OF_ASC_NODE":236.0498,"ARG_OF_PERICENTER":31.2635,"MEAN_ANOMALY":328.8602,"EPHEMERIS_TYPE":0,"CLASSIFICATION_TYPE":"U","NORAD_CAT_ID":67784,"ELEMENT_SET_NO":999,"REV_AT_EPOCH":455,"BSTAR":0.0010025516,"MEAN_MOTION_DOT":0.0003519,"MEAN_MOTION_DDOT":0},{"OBJECT_NAME":"KUIPER-00226","OBJECT_ID":"2026-030X","EPOCH":"2026-03-06T03:59:45.826368","MEAN_MOTION":15.31135927,"ECCENTRICITY":0.0019783,"INCLINATION":51.8803,"RA_OF_ASC_NODE":236.6875,"ARG_OF_PERICENTER":62.6659,"MEAN_ANOMALY":297.6336,"EPHEMERIS_TYPE":0,"CLASSIFICATION_TYPE":"U","NORAD_CAT_ID":67785,"ELEMENT_SET_NO":999,"REV_AT_EPOCH":454,"BSTAR":-0.0010307011,"MEAN_MOTION_DOT":-0.00031897,"MEAN_MOTION_DDOT":0},{"OBJECT_NAME":"KUIPER-00259","OBJECT_ID":"2026-030Y","EPOCH":"2026-03-06T06:10:31.376640","MEAN_MOTION":15.34934409,"ECCENTRICITY":0.00082851,"INCLINATION":51.8815,"RA_OF_ASC_NODE":235.8084,"ARG_OF_PERICENTER":39.9302,"MEAN_ANOMALY":320.2292,"EPHEMERIS_TYPE":0,"CLASSIFICATION_TYPE":"U","NORAD_CAT_ID":67786,"ELEMENT_SET_NO":999,"REV_AT_EPOCH":456,"BSTAR":0.0010177187,"MEAN_MOTION_DOT":0.00034823,"MEAN_MOTION_DDOT":0},{"OBJECT_NAME":"KUIPER-00260","OBJECT_ID":"2026-030Z","EPOCH":"2026-03-06T04:08:53.745792","MEAN_MOTION":15.36319992,"ECCENTRICITY":9.783e-5,"INCLINATION":51.8793,"RA_OF_ASC_NODE":235.9979,"ARG_OF_PERICENTER":50.9912,"MEAN_ANOMALY":309.1162,"EPHEMERIS_TYPE":0,"CLASSIFICATION_TYPE":"U","NORAD_CAT_ID":67787,"ELEMENT_SET_NO":999,"REV_AT_EPOCH":446,"BSTAR":0.0010952061,"MEAN_MOTION_DOT":0.00039204,"MEAN_MOTION_DDOT":0},{"OBJECT_NAME":"KUIPER-00262","OBJECT_ID":"2026-030AA","EPOCH":"2026-03-06T04:03:35.915616","MEAN_MOTION":15.36636127,"ECCENTRICITY":3.65e-5,"INCLINATION":51.8804,"RA_OF_ASC_NODE":235.9762,"ARG_OF_PERICENTER":166.2691,"MEAN_ANOMALY":193.8306,"EPHEMERIS_TYPE":0,"CLASSIFICATION_TYPE":"U","NORAD_CAT_ID":67788,"ELEMENT_SET_NO":999,"REV_AT_EPOCH":455,"BSTAR":0.0010009135,"MEAN_MOTION_DOT":0.00036149,"MEAN_MOTION_DDOT":0},{"OBJECT_NAME":"KUIPER-00266","OBJECT_ID":"2026-030AB","EPOCH":"2026-03-06T04:06:32.850720","MEAN_MOTION":15.30937356,"ECCENTRICITY":0.00223143,"INCLINATION":51.8802,"RA_OF_ASC_NODE":236.7151,"ARG_OF_PERICENTER":63.5549,"MEAN_ANOMALY":296.7721,"EPHEMERIS_TYPE":0,"CLASSIFICATION_TYPE":"U","NORAD_CAT_ID":67789,"ELEMENT_SET_NO":999,"REV_AT_EPOCH":454,"BSTAR":0.00087179632,"MEAN_MOTION_DOT":0.00026361,"MEAN_MOTION_DDOT":0},{"OBJECT_NAME":"KUIPER-00268","OBJECT_ID":"2026-030AC","EPOCH":"2026-03-06T04:16:38.692704","MEAN_MOTION":15.35856274,"ECCENTRICITY":0.00025058,"INCLINATION":51.8843,"RA_OF_ASC_NODE":236.0422,"ARG_OF_PERICENTER":38.1032,"MEAN_ANOMALY":322.0131,"EPHEMERIS_TYPE":0,"CLASSIFICATION_TYPE":"U","NORAD_CAT_ID":67790,"ELEMENT_SET_NO":999,"REV_AT_EPOCH":455,"BSTAR":0.0010386129,"MEAN_MOTION_DOT":0.00036593,"MEAN_MOTION_DDOT":0},{"OBJECT_NAME":"KUIPER-00270","OBJECT_ID":"2026-030AD","EPOCH":"2026-03-06T06:18:38.902464","MEAN_MOTION":15.34510359,"ECCENTRICITY":0.00102362,"INCLINATION":51.8813,"RA_OF_ASC_NODE":235.845,"ARG_OF_PERICENTER":46.8405,"MEAN_ANOMALY":313.3434,"EPHEMERIS_TYPE":0,"CLASSIFICATION_TYPE":"U","NORAD_CAT_ID":67791,"ELEMENT_SET_NO":999,"REV_AT_EPOCH":456,"BSTAR":0.00098216836,"MEAN_MOTION_DOT":0.00033149,"MEAN_MOTION_DDOT":0},{"OBJECT_NAME":"KUIPER-00274","OBJECT_ID":"2026-030AE","EPOCH":"2026-03-06T02:17:06.084384","MEAN_MOTION":15.30942893,"ECCENTRICITY":0.00180776,"INCLINATION":51.8814,"RA_OF_ASC_NODE":236.9671,"ARG_OF_PERICENTER":61.5629,"MEAN_ANOMALY":298.7174,"EPHEMERIS_TYPE":0,"CLASSIFICATION_TYPE":"U","NORAD_CAT_ID":67792,"ELEMENT_SET_NO":999,"REV_AT_EPOCH":453,"BSTAR":-0.0020861916,"MEAN_MOTION_DOT":-0.00063466,"MEAN_MOTION_DDOT":0},{"OBJECT_NAME":"KUIPER-00275","OBJECT_ID":"2026-030AF","EPOCH":"2026-03-06T06:14:49.408512","MEAN_MOTION":15.34583752,"ECCENTRICITY":0.00089325,"INCLINATION":51.8848,"RA_OF_ASC_NODE":235.8367,"ARG_OF_PERICENTER":44.196,"MEAN_ANOMALY":315.9737,"EPHEMERIS_TYPE":0,"CLASSIFICATION_TYPE":"U","NORAD_CAT_ID":67793,"ELEMENT_SET_NO":999,"REV_AT_EPOCH":456,"BSTAR":0.0010017099,"MEAN_MOTION_DOT":0.00033887,"MEAN_MOTION_DDOT":0},{"OBJECT_NAME":"KUIPER-00276","OBJECT_ID":"2026-030AG","EPOCH":"2026-03-06T03:56:35.673792","MEAN_MOTION":15.31235035,"ECCENTRICITY":0.00186819,"INCLINATION":51.8812,"RA_OF_ASC_NODE":236.6777,"ARG_OF_PERICENTER":57.7272,"MEAN_ANOMALY":302.5519,"EPHEMERIS_TYPE":0,"CLASSIFICATION_TYPE":"U","NORAD_CAT_ID":67794,"ELEMENT_SET_NO":999,"REV_AT_EPOCH":454,"BSTAR":-0.0010253292,"MEAN_MOTION_DOT":-0.00031809,"MEAN_MOTION_DDOT":0},{"OBJECT_NAME":"KUIPER-00279","OBJECT_ID":"2026-030AH","EPOCH":"2026-03-06T04:30:47.355840","MEAN_MOTION":15.35250306,"ECCENTRICITY":0.00065791,"INCLINATION":51.8808,"RA_OF_ASC_NODE":236.0959,"ARG_OF_PERICENTER":37.7331,"MEAN_ANOMALY":322.4115,"EPHEMERIS_TYPE":0,"CLASSIFICATION_TYPE":"U","NORAD_CAT_ID":67795,"ELEMENT_SET_NO":999,"REV_AT_EPOCH":455,"BSTAR":0.0010080813,"MEAN_MOTION_DOT":0.00034828,"MEAN_MOTION_DDOT":0}]
